STARLINK-37056          
1 68260U 26054AE  26094.27501699  .00317678  00000+0  15389-2 0  9998
2 68260  53.1584 184.2043 0001627  94.6913 265.4296 15.81093386  2820
TEN-KOH 2               
1 68261U 25241B   26093.95348627  .00014968  00000+0  64232-3 0  9998
2 68261  51.6395 312.7507 0004616 250.3397 109.7082 15.22898697  3596
STARLINK-37162          
1 68262U 26055A   26094.25002315  .00147136  00000+0  73922-3 0  9998
2 68262  53.1595 209.1984 0001327 126.4319 254.1042 15.80788657  3743
STARLINK-37156          
1 68263U 26055B   26094.25002315  .00156756  00000+0  78652-3 0  9992
2 68263  53.1596 209.1896 0001183 128.6026 256.2009 15.80786489  3743
STARLINK-37163          
1 68264U 26055C   26094.25002315  .00156773  00000+0  78654-3 0  9994
2 68264  53.1595 209.1710 0001178 134.1210 259.2253 15.80788325  3744
STARLINK-37133          
1 68265U 26055D   26094.25002315  .00149536  00000+0  75096-3 0  9991
2 68265  53.1595 209.1803 0001148 118.1116 270.9642 15.80790085  3740
STARLINK-37042          
1 68266U 26055E   26094.25002315  .00097577  00000+0  49335-3 0  9996
2 68266  53.1594 209.1625 0001072 115.1080 282.4949 15.80828406  3742
STARLINK-37103          
1 68267U 26055F   26094.25002315  .00076916  00000+0  39042-3 0  9995
2 68267  53.1595 209.1537 0001183 107.8029 294.0772 15.80836253  3742
STARLINK-36999          
1 68268U 26055G   26094.25002315  .00106131  00000+0  53602-3 0  9997
2 68268  53.1595 209.1448 0001262 110.5268 295.6302 15.80817530  3741
STARLINK-36962          
1 68269U 26055H   26094.25002315  .00086271  00000+0  43726-3 0  9996
2 68269  53.1595 209.1360 0001267 114.3264 296.1077 15.80823815  3746
STARLINK-37028          
1 68270U 26055J   26094.25002315 -.00077846  00000+0 -39386-3 0  9995
2 68270  53.1592 209.1180 0000783  77.7965 341.1728 15.80904120  3740
STARLINK-37029          
1 68271U 26055K   26094.25002315 -.00025631  00000+0 -12655-3 0  9991
2 68271  53.1594 209.1272 0000989  83.7040 330.9877 15.80899725  3749
STARLINK-36974          
1 68272U 26055L   26094.25002315 -.00095744  00000+0 -48596-3 0  9997
2 68272  53.1593 209.1091 0001385  86.5117 336.7194 15.80914666  3743
STARLINK-37019          
1 68273U 26055M   26094.25002315 -.00103239  00000+0 -52457-3 0  9998
2 68273  53.1593 209.0996 0001321  98.0905 329.4061 15.80921794  3742
STARLINK-37129          
1 68274U 26055N   26094.25002315 -.00021335  00000+0 -10464-3 0  9997
2 68274  53.1590 209.0912 0001640  93.1532 338.6182 15.80906661  3746
STARLINK-37123          
1 68275U 26055P   26094.25002315 -.00076573  00000+0 -38727-3 0  9994
2 68275  53.1591 209.0823 0001715  93.9825 342.0699 15.80903168  3746
