[{"OBJECT_NAME":"STARLINK-37056","OBJECT_ID":"2026-054AE","EPOCH":"2026-04-04T06:36:01.467936","MEAN_MOTION":15.81093386,"ECCENTRICITY":0.00016276,"INCLINATION":53.1584,"RA_OF_ASC_NODE":184.2043,"ARG_OF_PERICENTER":94.6913,"MEAN_ANOMALY":265.4296,"EPHEMERIS_TYPE":0,"CLASSIFICATION_TYPE":"U","NORAD_CAT_ID":68260,"ELEMENT_SET_NO":999,"REV_AT_EPOCH":282,"BSTAR":0.0015388887,"MEAN_MOTION_DOT":0.00317678,"MEAN_MOTION_DDOT":0},{"OBJECT_NAME":"TEN-KOH 2","OBJECT_ID":"2025-241B","EPOCH":"2026-04-03T22:53:01.213728","MEAN_MOTION":15.22898697,"ECCENTRICITY":0.00046165,"INCLINATION":51.6395,"RA_OF_ASC_NODE":312.7507,"ARG_OF_PERICENTER":250.3397,"MEAN_ANOMALY":109.7082,"EPHEMERIS_TYPE":0,"CLASSIFICATION_TYPE":"U","NORAD_CAT_ID":68261,"ELEMENT_SET_NO":999,"REV_AT_EPOCH":359,"BSTAR":0.00064231891,"MEAN_MOTION_DOT":0.00014968,"MEAN_MOTION_DDOT":0},{"OBJECT_NAME":"STARLINK-37162","OBJECT_ID":"2026-055A","EPOCH":"2026-04-04T06:00:02.000160","MEAN_MOTION":15.80788657,"ECCENTRICITY":0.00013272,"INCLINATION":53.1595,"RA_OF_ASC_NODE":209.1984,"ARG_OF_PERICENTER":126.4319,"MEAN_ANOMALY":254.1042,"EPHEMERIS_TYPE":0,"CLASSIFICATION_TYPE":"U","NORAD_CAT_ID":68262,"ELEMENT_SET_NO":999,"REV_AT_EPOCH":374,"BSTAR":0.00073922328,"MEAN_MOTION_DOT":0.00147136,"MEAN_MOTION_DDOT":0},{"OBJECT_NAME":"STARLINK-37156","OBJECT_ID":"2026-055B","EPOCH":"2026-04-04T06:00:02.000160","MEAN_MOTION":15.80786489,"ECCENTRICITY":0.00011836,"INCLINATION":53.1596,"RA_OF_ASC_NODE":209.1896,"ARG_OF_PERICENTER":128.6026,"MEAN_ANOMALY":256.2009,"EPHEMERIS_TYPE":0,"CLASSIFICATION_TYPE":"U","NORAD_CAT_ID":68263,"ELEMENT_SET_NO":999,"REV_AT_EPOCH":374,"BSTAR":0.00078652496,"MEAN_MOTION_DOT":0.00156756,"MEAN_MOTION_DDOT":0},{"OBJECT_NAME":"STARLINK-37163","OBJECT_ID":"2026-055C","EPOCH":"2026-04-04T06:00:02.000160","MEAN_MOTION":15.80788325,"ECCENTRICITY":0.00011785,"INCLINATION":53.1595,"RA_OF_ASC_NODE":209.171,"ARG_OF_PERICENTER":134.121,"MEAN_ANOMALY":259.2253,"EPHEMERIS_TYPE":0,"CLASSIFICATION_TYPE":"U","NORAD_CAT_ID":68264,"ELEMENT_SET_NO":999,"REV_AT_EPOCH":374,"BSTAR":0.00078654323,"MEAN_MOTION_DOT":0.00156773,"MEAN_MOTION_DDOT":0},{"OBJECT_NAME":"STARLINK-37133","OBJECT_ID":"2026-055D","EPOCH":"2026-04-04T06:00:02.000160","MEAN_MOTION":15.80790085,"ECCENTRICITY":0.00011481,"INCLINATION":53.1595,"RA_OF_ASC_NODE":209.1803,"ARG_OF_PERICENTER":118.1116,"MEAN_ANOMALY":270.9642,"EPHEMERIS_TYPE":0,"CLASSIFICATION_TYPE":"U","NORAD_CAT_ID":68265,"ELEMENT_SET_NO":999,"REV_AT_EPOCH":374,"BSTAR":0.00075096465,"MEAN_MOTION_DOT":0.00149536,"MEAN_MOTION_DDOT":0},{"OBJECT_NAME":"STARLINK-37042","OBJECT_ID":"2026-055E","EPOCH":"2026-04-04T06:00:02.000160","MEAN_MOTION":15.80828406,"ECCENTRICITY":0.00010728,"INCLINATION":53.1594,"RA_OF_ASC_NODE":209.1625,"ARG_OF_PERICENTER":115.108,"MEAN_ANOMALY":282.4949,"EPHEMERIS_TYPE":0,"CLASSIFICATION_TYPE":"U","NORAD_CAT_ID":68266,"ELEMENT_SET_NO":999,"REV_AT_EPOCH":374,"BSTAR":0.0004933497,"MEAN_MOTION_DOT":0.00097577,"MEAN_MOTION_DDOT":0},{"OBJECT_NAME":"STARLINK-37103","OBJECT_ID":"2026-055F","EPOCH":"2026-04-04T06:00:02.000160","MEAN_MOTION":15.80836253,"ECCENTRICITY":0.00011831,"INCLINATION":53.1595,"RA_OF_ASC_NODE":209.1537,"ARG_OF_PERICENTER":107.8029,"MEAN_ANOMALY":294.0772,"EPHEMERIS_TYPE":0,"CLASSIFICATION_TYPE":"U","NORAD_CAT_ID":68267,"ELEMENT_SET_NO":999,"REV_AT_EPOCH":374,"BSTAR":0.00039042363,"MEAN_MOTION_DOT":0.00076916,"MEAN_MOTION_DDOT":0},{"OBJECT_NAME":"STARLINK-36999","OBJECT_ID":"2026-055G","EPOCH":"2026-04-04T06:00:02.000160","MEAN_MOTION":15.8081753,"ECCENTRICITY":0.00012626,"INCLINATION":53.1595,"RA_OF_ASC_NODE":209.1448,"ARG_OF_PERICENTER":110.5268,"MEAN_ANOMALY":295.6302,"EPHEMERIS_TYPE":0,"CLASSIFICATION_TYPE":"U","NORAD_CAT_ID":68268,"ELEMENT_SET_NO":999,"REV_AT_EPOCH":374,"BSTAR":0.00053602472,"MEAN_MOTION_DOT":0.00106131,"MEAN_MOTION_DDOT":0},{"OBJECT_NAME":"STARLINK-36962","OBJECT_ID":"2026-055H","EPOCH":"2026-04-04T06:00:02.000160","MEAN_MOTION":15.80823815,"ECCENTRICITY":0.00012674,"INCLINATION":53.1595,"RA_OF_ASC_NODE":209.136,"ARG_OF_PERICENTER":114.3264,"MEAN_ANOMALY":296.1077,"EPHEMERIS_TYPE":0,"CLASSIFICATION_TYPE":"U","NORAD_CAT_ID":68269,"ELEMENT_SET_NO":999,"REV_AT_EPOCH":374,"BSTAR":0.00043725685,"MEAN_MOTION_DOT":0.00086271,"MEAN_MOTION_DDOT":0},{"OBJECT_NAME":"STARLINK-37028","OBJECT_ID":"2026-055J","EPOCH":"2026-04-04T06:00:02.000160","MEAN_MOTION":15.8090412,"ECCENTRICITY":7.837e-5,"INCLINATION":53.1592,"RA_OF_ASC_NODE":209.118,"ARG_OF_PERICENTER":77.7965,"MEAN_ANOMALY":341.1728,"EPHEMERIS_TYPE":0,"CLASSIFICATION_TYPE":"U","NORAD_CAT_ID":68270,"ELEMENT_SET_NO":999,"REV_AT_EPOCH":374,"BSTAR":-0.00039386395,"MEAN_MOTION_DOT":-0.00077846,"MEAN_MOTION_DDOT":0},{"OBJECT_NAME":"STARLINK-37029","OBJECT_ID":"2026-055K","EPOCH":"2026-04-04T06:00:02.000160","MEAN_MOTION":15.80899725,"ECCENTRICITY":9.898e-5,"INCLINATION":53.1594,"RA_OF_ASC_NODE":209.1272,"ARG_OF_PERICENTER":83.704,"MEAN_ANOMALY":330.9877,"EPHEMERIS_TYPE":0,"CLASSIFICATION_TYPE":"U","NORAD_CAT_ID":68271,"ELEMENT_SET_NO":999,"REV_AT_EPOCH":374,"BSTAR":-0.00012654615,"MEAN_MOTION_DOT":-0.00025631,"MEAN_MOTION_DDOT":0},{"OBJECT_NAME":"STARLINK-36974","OBJECT_ID":"2026-055L","EPOCH":"2026-04-04T06:00:02.000160","MEAN_MOTION":15.80914666,"ECCENTRICITY":0.00013857,"INCLINATION":53.1593,"RA_OF_ASC_NODE":209.1091,"ARG_OF_PERICENTER":86.5117,"MEAN_ANOMALY":336.7194,"EPHEMERIS_TYPE":0,"CLASSIFICATION_TYPE":"U","NORAD_CAT_ID":68272,"ELEMENT_SET_NO":999,"REV_AT_EPOCH":374,"BSTAR":-0.00048596307,"MEAN_MOTION_DOT":-0.00095744,"MEAN_MOTION_DDOT":0},{"OBJECT_NAME":"STARLINK-37019","OBJECT_ID":"2026-055M","EPOCH":"2026-04-04T06:00:02.000160","MEAN_MOTION":15.80921794,"ECCENTRICITY":0.00013215,"INCLINATION":53.1593,"RA_OF_ASC_NODE":209.0996,"ARG_OF_PERICENTER":98.0905,"MEAN_ANOMALY":329.4061,"EPHEMERIS_TYPE":0,"CLASSIFICATION_TYPE":"U","NORAD_CAT_ID":68273,"ELEMENT_SET_NO":999,"REV_AT_EPOCH":374,"BSTAR":-0.00052456664,"MEAN_MOTION_DOT":-0.00103239,"MEAN_MOTION_DDOT":0},{"OBJECT_NAME":"STARLINK-37129","OBJECT_ID":"2026-055N","EPOCH":"2026-04-04T06:00:02.000160","MEAN_MOTION":15.80906661,"ECCENTRICITY":0.00016406,"INCLINATION":53.159,"RA_OF_ASC_NODE":209.0912,"ARG_OF_PERICENTER":93.1532,"MEAN_ANOMALY":338.6182,"EPHEMERIS_TYPE":0,"CLASSIFICATION_TYPE":"U","NORAD_CAT_ID":68274,"ELEMENT_SET_NO":999,"REV_AT_EPOCH":374,"BSTAR":-0.00010464238,"MEAN_MOTION_DOT":-0.00021335,"MEAN_MOTION_DDOT":0},{"OBJECT_NAME":"STARLINK-37123","OBJECT_ID":"2026-055P","EPOCH":"2026-04-04T06:00:02.000160","MEAN_MOTION":15.80903168,"ECCENTRICITY":0.00017153,"INCLINATION":53.1591,"RA_OF_ASC_NODE":209.0823,"ARG_OF_PERICENTER":93.9825,"MEAN_ANOMALY":342.0699,"EPHEMERIS_TYPE":0,"CLASSIFICATION_TYPE":"U","NORAD_CAT_ID":68275,"ELEMENT_SET_NO":999,"REV_AT_EPOCH":374,"BSTAR":-0.00038726982,"MEAN_MOTION_DOT":-0.00076573,"MEAN_MOTION_DDOT":0}]
